1 48219C 21031K   21261.85609211  .00001722  00000+0  46354-2 0  2612
2 48219  87.9039 273.9894 0001958 105.0167  36.5127 13.14709231    13
1 48219C 21031K   21261.85609211  .00001721  00000+0  46328-2 0  2612
2 48219  87.9039 273.9894 0001958 105.0158  36.5136 13.14709234    16
1 48219C 21031K   21262.37555556  .00002122  00000+0  57137-2 0  2629
2 48219  87.9037 273.8863 0001967 104.9512 333.7776 13.14708445    16
1 48219C 21031K   21262.82976109 -.00014891  00000+0 -40110-1 0  2620
2 48219  87.9035 273.7961 0002087 104.8860 322.3608 13.14696443    13
1 48219C 21031K   21263.21315229 -.00002898  00000+0 -78025-2 0  2636
2 48219  87.9035 273.7200 0001985 104.7885 335.9889 13.14713385    17
1 48219C 21031K   21263.59027778 -.00000606  00000+0 -16302-2 0  2631
2 48219  87.9035 273.6451 0002000 104.5668 320.1108 13.14713087    19
1 48219C 21031K   21263.89446016  .00003283  00000+0  88392-2 0  2634
2 48219  87.9035 273.5847 0001999 104.2962 319.2480 13.14708267    13
1 48219C 21031K   21263.89446016  .00003281  00000+0  88331-2 0  2635
2 48219  87.9035 273.5847 0001999 104.2962 319.2480 13.14708268    14
1 48219C 21031K   21264.27854581 -.00000111  00000+0 -29884-3 0  2649
2 48219  87.9037 273.5084 0002003 104.1674 336.2024 13.14711086    10
1 48219C 21031K   21264.27854581 -.00002982  00000+0 -80279-2 0  2641
2 48219  87.9037 273.5084 0002026 104.2948 336.0739 13.14713340    16
1 48219C 21031K   21264.58491155 -.00000221  00000+0 -59596-3 0  2642
2 48219  87.9037 273.4475 0002017 104.0621 345.4940 13.14714012    10
1 48219C 21031K   21264.58491155 -.00028561  00000+0 -76908-1 0  2643
2 48219  87.9037 273.4475 0002093 103.8871 345.6630 13.14731279    10
1 48219C 21031K   21265.11066387 -.00002319  00000+0 -62442-2 0  2651
2 48219  87.9040 273.3431 0002024 103.6852 312.8182 13.14716697    11
1 48219C 21031K   21265.26766618 -.00000157  00000+0 -42268-3 0  2654
2 48219  87.9041 273.3119 0002017 103.5502 335.6209 13.14712919    14
1 48219C 21031K   21265.72050183 -.00340888  00000+0 -92282+0 0  2653
2 48219  87.9044 273.2219 0001678 101.7556 319.5037 13.14682289    14
1 48219C 21031K   21265.72050183 -.00000389  00000+0 -10473-2 0  2657
2 48219  87.9044 273.2219 0002026 103.2866 317.9181 13.14714588    13
1 48219C 21031K   21266.09972637 -.00002168  00000+0 -58374-2 0  2665
2 48219  87.9046 273.1465 0002037 103.0578 311.9786 13.14718601    12
1 48219C 21031K   21266.09972637 -.00002169  00000+0 -58398-2 0  2662
2 48219  87.9046 273.1465 0002037 103.0577 311.9786 13.14718602    12
1 48219C 21031K   21266.09972637 -.00403092  00000+0 -10896+1 0  2661
2 48219  87.9046 273.1465 0001924 101.2833 313.7377 13.14847673    18
1 48219C 21031K   21266.09972637 -.00403093  00000+0 -10896+1 0  2662
2 48219  87.9046 273.1465 0001924 101.2833 313.7377 13.14847673    18
1 48219C 21031K   21266.41668238 -.00060092  00000+0 -16281+0 0  2668
2 48219  87.9048 273.0836 0001871 102.4619  11.9695 13.14342585    19
1 48219C 21031K   21266.86187914  .00003234  00000+0  87622-2 0  2667
2 48219  87.9050 272.9952 0002053 102.5134 317.1848 13.14268478    14
1 48219C 21031K   21267.24671711 -.00001166  00000+0 -31587-2 0  2677
2 48219  87.9053 272.9188 0002054 102.4518 337.0211 13.14272727    11
1 48219C 21031K   21267.39816387  .00003397  00000+0  92053-2 0  2674
2 48219  87.9053 272.8888 0002060 102.2944 333.3233 13.14269260    16
1 48219C 21031K   21267.39816387  .00003397  00000+0  92052-2 0  2673
2 48219  87.9053 272.8888 0002060 102.2944 333.3234 13.14269260    17
1 48219C 21031K   21267.69931713 -.00001437  00000+0 -38941-2 0  2679
2 48219  87.9055 272.8290 0002064 102.2629 317.4113 13.14273946    15
1 48219C 21031K   21267.85148563  .00002618  00000+0  70941-2 0  2676
2 48219  87.9055 272.7988 0002065 102.1112 317.1226 13.14269866    13
1 48219C 21031K   21268.23972222 -.00001851  00000+0 -50167-2 0  2685
2 48219  87.9057 272.7218 0002065 102.0360 353.0450 13.14273926    15
1 48219C 21031K   21268.23972222 -.00001835  00000+0 -49719-2 0  2688
2 48219  87.9057 272.7218 0002065 102.0360 353.0451 13.14273929    19
1 48219C 21031K   21268.68906662 -.00002103  00000+0 -56973-2 0  2681
2 48219  87.9057 272.6326 0002076 101.9490 317.9398 13.14274686    12
1 48219C 21031K   21268.84120784  .00001956  00000+0  53000-2 0  2683
2 48219  87.9057 272.6025 0002077 101.8291 317.4907 13.14270260    12
1 48219C 21031K   21269.22598794 -.00002688  00000+0 -72832-2 0  2696
2 48219  87.9058 272.5261 0002079 101.8329 336.9893 13.14274236    15
1 48219C 21031K   21269.53229581 -.00000711  00000+0 -19267-2 0  2693
2 48219  87.9057 272.4654 0002093 101.8064 345.4465 13.14274150    16
1 48219C 21031K   21269.53229581 -.00000711  00000+0 -19267-2 0  2693
2 48219  87.9057 272.4654 0002093 101.8065 345.4465 13.14274150    17
1 48219C 21031K   21269.83102266  .00001385  00000+0  37527-2 0  2691
2 48219  87.9057 272.4061 0002091 101.6602 318.1829 13.14269562    14
1 48219C 21031K   21270.21094164  .00034206  00000+0  92680-1 0  2702
2 48219  87.9057 272.3308 0001952  99.5599 316.8093 13.14245039    13
1 48219C 21031K   21270.21094164 -.00003355  00000+0 -90925-2 0  2706
2 48219  87.9057 272.3308 0002097 101.7200 314.6370 13.14273547    18
1 48219C 21031K   21270.51724953  .00192649  00000+0  52140+0 0  2702
2 48219  87.9056 272.2700 0001981  96.8928 327.9307 13.14161826    17
1 48219C 21031K   21270.51724953  .00192649  00000+0  52140+0 0  2702
2 48219  87.9056 272.2700 0001981  96.8929 327.9307 13.14161826    18
1 48219C 21031K   21270.97425183  .00058503  00000+0  15802+0 0  2709
2 48219  87.9054 272.1794 0002135  88.4261 337.3311 13.14431577    19
1 48219C 21031K   21271.35694859  .00001723  00000+0  46542-2 0  2711
2 48219  87.9053 272.1035 0002109  88.5960 347.0612 13.14501637    11
1 48219C 21031K   21271.35694859  .00001723  00000+0  46541-2 0  2710
2 48219  87.9053 272.1035 0002109  88.5960 347.0613 13.14501637    12
1 48219C 21031K   21271.81053656  .00001048  00000+0  28293-2 0  2719
2 48219  87.9052 272.0135 0002106  88.5658 332.3440 13.14501197    18
1 48219C 21031K   21272.03767776 -.00002400  00000+0 -64806-2 0  2725
2 48219  87.9050 271.9685 0002116  88.5861 326.5856 13.14506475    11
1 48219C 21031K   21272.34676340  .00001898  00000+0  51255-2 0  2727
2 48219  87.9050 271.9072 0002109  88.3928 348.6098 13.14499855    11
1 48219C 21031K   21272.49682127  .00000463  00000+0  12497-2 0  2725
2 48219  87.9049 271.8774 0002115  88.4602 338.2387 13.14503016    15
1 48219C 21031K   21273.49062914  .00001063  00000+0  28696-2 0  2738
2 48219  87.9046 271.6803 0002115  88.1444 358.7792 13.14501909    10
1 48219C 21031K   21273.49062914  .00001184  00000+0  31966-2 0  2736
2 48219  87.9046 271.6803 0002119  88.1460 358.7774 13.14502575    12
1 48219C 21031K   21274.29167081  .00001727  00000+0  46646-2 0  2741
2 48219  87.9045 271.5214 0002120  87.7839 187.6794 13.14500080    13
1 48219C 21031K   21274.29167081  .00001728  00000+0  46657-2 0  2744
2 48219  87.9045 271.5214 0002120  87.7839 187.6794 13.14500080    13
1 48219C 21031K   21274.63275879 -.00001515  00000+0 -40918-2 0  2747
2 48219  87.9045 271.4538 0002113  87.4929   1.1458 13.14504923    17
1 48219C 21031K   21274.93281664  .00002733  00000+0  73811-2 0  2748
2 48219  87.9045 271.3942 0002118  87.1666 340.6002 13.14502061    12
1 48219C 21031K   21275.31551340  .00002849  00000+0  76950-2 0  2758
2 48219  87.9045 271.3183 0002110  86.9007 350.8393 13.14500672    19
1 48219C 21031K   21275.76834905  .00002001  00000+0  54036-2 0  2759
2 48219  87.9045 271.2285 0002106  86.6287 332.8046 13.14502295    11
1 48219C 21031K   21276.15868470 -.00002299  00000+0 -62098-2 0  2766
2 48219  87.9046 271.1511 0002105  86.3766  19.1530 13.14507891    11
1 48219C 21031K   21276.61155507 -.00001140  00000+0 -30782-2 0  2766
2 48219  87.9047 271.0613 0002106  86.1313   1.2580 13.14508467    18
1 48219C 21031K   21276.91161294  .00003295  00000+0  88989-2 0  2762
2 48219  87.9048 271.0018 0002108  85.7734 340.7488 13.14505178    16
1 48219C 21031K   21277.29430971  .00002232  00000+0  60283-2 0  2773
2 48219  87.9049 270.9258 0002096  85.5523 350.9476 13.14505037    15
1 48219C 21031K   21277.29430971  .00002232  00000+0  60284-2 0  2774
2 48219  87.9049 270.9258 0002096  85.5523 350.9476 13.14505037    15
1 48219C 21031K   21277.60136988 -.00001458  00000+0 -39362-2 0  2774
2 48219  87.9050 270.8649 0002099  85.5117   3.2338 13.14510611    11
1 48219C 21031K   21277.90142776  .00003027  00000+0  81738-2 0  2775
2 48219  87.9050 270.8054 0002100  85.1797 342.7013 13.14506851    16
1 48219C 21031K   21278.28412451  .00001471  00000+0  39722-2 0  2785
2 48219  87.9052 270.7295 0002088  85.0118 352.8489 13.14506904    13
1 48219C 21031K   21278.43765461  .00002339  00000+0  63149-2 0  2788
2 48219  87.9052 270.6990 0002095  85.0135 358.9701 13.14508144    13
1 48219C 21031K   21278.81479582  .00002420  00000+0  65351-2 0  2784
2 48219  87.9053 270.6242 0002088  84.7672 342.9223 13.14506575    16
1 48219C 21031K   21279.04477267 -.00002848  00000+0 -76899-2 0  2794
2 48219  87.9053 270.5785 0002090  84.8538 350.5137 13.14513431    10
1 48219C 21031K   21279.43719166  .00001622  00000+0  43812-2 0  2790
2 48219  87.9054 270.5006 0002085  84.7301  46.6003 13.14508680    13
1 48219C 21031K   21279.80599951  .00001765  00000+0  47651-2 0  2792
2 48219  87.9055 270.4274 0002080  84.4763 351.1476 13.14506536    10
1 48219C 21031K   21280.18661295 -.00002990  00000+0 -80754-2 0  2802
2 48219  87.9055 270.3519 0002073  84.4969 351.2495 13.14510511    11
1 48219C 21031K   21280.63458749 -.00002895  00000+0 -78180-2 0  2804
2 48219  87.9056 270.2629 0002075  84.4767 309.9795 13.14510370    17
1 48219C 21031K   21280.93956433  .00000194  00000+0  52497-3 0  2802
2 48219  87.9056 270.2024 0002078  84.2805 312.5725 13.14508290    11
